NORAD_CAT_ID,OBJECT_NAME,OBJECT_TYPE,EPOCH,MEAN_MOTION,ECCENTRICITY,INCLINATION,RA_OF_ASC_NODE,ARG_OF_PERICENTER,MEAN_ANOMALY,BSTAR,MEAN_MOTION_DOT,MEAN_MOTION_DDOT,TLE_LINE0,TLE_LINE1,TLE_LINE2,SEMIMAJOR_AXIS,PERIOD,APOGEE,PERIGEE,DECAYED
53820.0,STARLINK-4758,PAYLOAD,2023-07-26 05:24:05,15.08840448,0.0001074,53.2166,282.5639,97.5392,262.5722,5.7905e-05,6.34e-06,0.0,0 STARLINK-4758,1 53820U 22114C   23207.22505792  .00000634  00000-0  57905-4 0  9997,2 53820  53.2166 282.5639 0001074  97.5392 262.5722 15.08840448 48285,6917.879,95.438,540.487,539.001,0.0
53820.0,STARLINK-4758,PAYLOAD,2023-07-26 08:34:51,15.08843414,0.0001066,53.2163,281.9698,91.8549,268.2565,7.8192e-05,9.57e-06,0.0,0 STARLINK-4758,1 53820U 22114C   23207.35753544  .00000957  00000-0  78192-4 0  9990,2 53820  53.2163 281.9698 0001066  91.8549 268.2565 15.08843414 48309,6917.87,95.437,540.472,538.998,0.0
53820.0,STARLINK-4758,PAYLOAD,2023-07-27 03:39:28,15.08840742,0.0001208,53.2169,278.4034,92.3361,267.777,0.00010861,1.441e-05,0.0,0 STARLINK-4758,1 53820U 22114C   23208.15241475  .00001441  00000-0  10861-3 0  9991,2 53820  53.2169 278.4034 0001208  92.3361 267.7770 15.08840742 47881,6917.878,95.438,540.579,538.907,0.0
53820.0,STARLINK-4758,PAYLOAD,2023-07-27 21:08:43,15.0883796,0.0001166,53.2164,275.1321,87.7259,272.3867,5.3963e-05,5.71e-06,0.0,0 STARLINK-4758,1 53820U 22114C   23208.88105832  .00000571  00000-0  53963-4 0  9991,2 53820  53.2164 275.1321 0001166  87.7259 272.3867 15.08837960 48536,6917.887,95.438,540.558,538.945,0.0
53820.0,STARLINK-4758,PAYLOAD,2023-07-28 03:30:16,15.08835911,0.0001258,53.2174,273.944,93.8892,266.2243,-8.3428e-06,-4.21e-06,0.0,0 STARLINK-4758,1 53820U 22114C   23209.14602191 -.00000421  00000-0 -83428-5 0  9997,2 53820  53.2174 273.9440 0001258  93.8892 266.2243 15.08835911 48037,6917.893,95.438,540.628,538.888,0.0
53820.0,STARLINK-4758,PAYLOAD,2023-07-28 13:02:35,15.088311,0.0001115,53.2174,272.1589,92.4451,267.6669,-4.8828e-05,-1.065e-05,0.0,0 STARLINK-4758,1 53820U 22114C   23209.54346736 -.00001065  00000-0 -48828-4 0  9990,2 53820  53.2174 272.1589 0001115  92.4451 267.6669 15.08831100 48639,6917.908,95.438,540.544,539.001,0.0
53820.0,STARLINK-4758,PAYLOAD,2023-07-29 03:21:02,15.0889758,8.58e-05,53.2177,269.4823,106.9908,253.1178,-0.00082513,-0.00013416,0.0,0 STARLINK-4758,1 53820U 22114C   23210.13961638 -.00013416  00000-0 -82513-3 0  9992,2 53820  53.2177 269.4823 0000858 106.9908 253.1178 15.08897580 48182,6917.704,95.434,540.163,538.976,0.0
53820.0,STARLINK-4758,PAYLOAD,2023-07-29 09:42:35,15.08845616,0.0001087,53.2171,268.2926,82.9405,277.1711,9.5872e-05,1.239e-05,0.0,0 STARLINK-4758,1 53820U 22114C   23210.40457640  .00001239  00000-0  95872-4 0  9996,2 53820  53.2171 268.2926 0001087  82.9405 277.1711 15.08845616 48224,6917.863,95.437,540.48,538.976,0.0
53820.0,STARLINK-4758,PAYLOAD,2023-07-30 03:11:50,15.08828061,0.0001002,53.2162,265.021,77.9425,282.1679,0.00012234,1.659e-05,0.0,0 STARLINK-4758,1 53820U 22114C   23211.13322869  .00001659  00000-0  12234-3 0  9997,2 53820  53.2162 265.0210 0001002  77.9425 282.1679 15.08828061 48334,6917.917,95.438,540.475,539.089,0.0
53820.0,STARLINK-4758,PAYLOAD,2023-07-30 20:41:05,15.08839147,0.0001148,53.2168,261.7494,77.6572,282.4549,0.00013192,1.812e-05,0.0,0 STARLINK-4758,1 53820U 22114C   23211.86186605  .00001812  00000-0  13192-3 0  9998,2 53820  53.2168 261.7494 0001148  77.6572 282.4549 15.08839147 48446,6917.883,95.438,540.542,538.954,0.0
53820.0,STARLINK-4758,PAYLOAD,2023-07-31 09:24:09,15.08850566,0.0001123,53.2163,259.3703,79.044,281.0678,9.4762e-05,1.221e-05,0.0,0 STARLINK-4758,1 53820U 22114C   23212.39177820  .00001221  00000-0  94762-4 0  9993,2 53820  53.2163 259.3703 0001123  79.0440 281.0678 15.08850566 48525,6917.848,95.437,540.49,538.936,0.0
53820.0,STARLINK-4758,PAYLOAD,2023-07-31 23:42:38,15.08838959,0.0001174,53.2159,256.6935,84.1798,275.9328,0.00013509,1.863e-05,0.0,0 STARLINK-4758,1 53820U 22114C   23212.98794314  .00001863  00000-0  13509-3 0  9992,2 53820  53.2159 256.6935 0001174  84.1798 275.9328 15.08838959 48612,6917.884,95.438,540.561,538.936,0.0
53820.0,STARLINK-4758,PAYLOAD,2023-08-02 02:44:11,15.08836499,0.0001121,53.2154,251.6378,86.4989,273.6131,4.546e-05,4.36e-06,0.0,0 STARLINK-4758,1 53820U 22114C   23214.11402719  .00000436  00000-0  45460-4 0  9991,2 53820  53.2154 251.6378 0001121  86.4989 273.6131 15.08836499 48784,6917.891,95.438,540.532,538.981,0.0
53820.0,STARLINK-4758,PAYLOAD,2023-08-03 10:31:54,15.08842483,0.0001171,53.2151,245.6897,88.3053,271.8074,9.3055e-05,1.194e-05,0.0,0 STARLINK-4758,1 53820U 22114C   23215.43882231  .00001194  00000-0  93055-4 0  9993,2 53820  53.2151 245.6897 0001171  88.3053 271.8074 15.08842483 48986,6917.873,95.437,540.548,538.928,0.0
53820.0,STARLINK-4758,PAYLOAD,2023-08-04 02:25:46,15.08833195,0.0001316,53.2164,242.718,90.0099,270.1044,4.0379e-05,3.55e-06,0.0,0 STARLINK-4758,1 53820U 22114C   23216.10123172  .00000355  00000-0  40379-4 0  9999,2 53820  53.2164 242.7180 0001316  90.0099 270.1044 15.08833195 49085,6917.901,95.438,540.677,538.856,0.0
53820.0,STARLINK-4758,PAYLOAD,2023-08-05 07:02:42,15.08841474,0.0001337,53.2165,237.3653,96.1053,264.0091,6.7785e-05,7.91e-06,0.0,0 STARLINK-4758,1 53820U 22114C   23217.29354789  .00000791  00000-0  67785-4 0  9994,2 53820  53.2165 237.3653 0001337  96.1053 264.0091 15.08841474 49264,6917.876,95.437,540.666,538.816,0.0
53820.0,STARLINK-4758,PAYLOAD,2023-08-06 08:28:52,15.08837944,0.000123,53.2159,232.6071,92.3573,267.756,7.9907e-05,9.84e-06,0.0,0 STARLINK-4758,1 53820U 22114C   23218.35339100  .00000984  00000-0  79907-4 0  9995,2 53820  53.2159 232.6071 0001230  92.3573 267.7560 15.08837944 49422,6917.887,95.438,540.603,538.901,0.0
53820.0,STARLINK-4758,PAYLOAD,2023-08-07 17:51:58,15.08840302,0.0001198,53.216,226.3619,89.3932,270.7197,4.6067e-05,4.45e-06,0.0,0 STARLINK-4758,1 53820U 22114C   23219.74443152  .00000445  00000-0  46067-4 0  9995,2 53820  53.2160 226.3619 0001198  89.3932 270.7197 15.08840302 49635,6917.879,95.438,540.573,538.916,0.0
53820.0,STARLINK-4758,PAYLOAD,2023-08-09 00:04:18,15.08837006,0.0001155,53.2154,220.7116,90.0416,270.0709,5.7557e-05,6.28e-06,0.0,0 STARLINK-4758,1 53820U 22114C   23221.00299294  .00000628  00000-0  57557-4 0  9992,2 53820  53.2154 220.7116 0001155  90.0416 270.0709 15.08837006 49827,6917.89,95.438,540.554,538.956,0.0
53820.0,STARLINK-4758,PAYLOAD,2023-08-10 09:27:24,15.08843081,0.0001201,53.2151,214.467,84.9392,275.1737,3.906e-05,3.34e-06,0.0,0 STARLINK-4758,1 53820U 22114C   23222.39402940  .00000334  00000-0  39060-4 0  9992,2 53820  53.2151 214.4670 0001201  84.9392 275.1737 15.08843081 50038,6917.871,95.437,540.567,538.905,0.0
53820.0,STARLINK-4758,PAYLOAD,2023-08-10 23:45:52,15.08836086,0.0001241,53.2144,211.79,84.5509,275.5625,3.554e-05,2.78e-06,0.0,0 STARLINK-4758,1 53820U 22114C   23222.99019418  .00000278  00000-0  35540-4 0  9998,2 53820  53.2144 211.7900 0001241  84.5509 275.5625 15.08836086 50123,6917.892,95.438,540.616,538.899,0.0
53820.0,STARLINK-4758,PAYLOAD,2023-08-12 09:08:58,15.08843137,0.0001157,53.2159,205.5457,87.4723,272.6402,8.6574e-06,-1.5e-06,0.0,0 STARLINK-4758,1 53820U 22114C   23224.38123280 -.00000150  00000-0  86574-5 0  9990,2 53820  53.2159 205.5457 0001157  87.4723 272.6402 15.08843137 50332,6917.871,95.437,540.536,538.935,0.0
53820.0,STARLINK-4758,PAYLOAD,2023-08-12 23:27:27,15.08825858,0.0001301,53.2166,202.869,92.242,267.8721,0.00010001,1.304e-05,0.0,0 STARLINK-4758,1 53820U 22114C   23224.97740131  .00001304  00000-0  10001-3 0  9996,2 53820  53.2166 202.8690 0001301  92.2420 267.8721 15.08825858 50428,6917.924,95.438,540.689,538.889,0.0
53820.0,STARLINK-4758,PAYLOAD,2023-08-13 15:21:18,15.08837374,0.0001203,53.2163,199.8959,90.1421,269.9709,5.8779e-06,-1.94e-06,0.0,0 STARLINK-4758,1 53820U 22114C   23225.63979919 -.00000194  00000-0  58779-5 0  9991,2 53820  53.2163 199.8959 0001203  90.1421 269.9709 15.08837374 50523,6917.888,95.438,540.586,538.921,0.0
53820.0,STARLINK-4758,PAYLOAD,2023-08-15 02:19:47,15.08839023,0.0001225,53.2155,193.354,89.9528,270.1604,8.5811e-05,1.078e-05,0.0,0 STARLINK-4758,1 53820U 22114C   23227.09707807  .00001078  00000-0  85811-4 0  9995,2 53820  53.2155 193.3540 0001225  89.9528 270.1604 15.08839023 50742,6917.883,95.438,540.596,538.901,0.0
53820.0,STARLINK-4758,PAYLOAD,2023-08-16 06:56:43,15.08844392,0.0001205,53.2169,187.9991,98.5043,261.6086,5.5989e-05,6.03e-06,0.0,0 STARLINK-4758,1 53820U 22114C   23228.28939446  .00000603  00000-0  55989-4 0  9999,2 53820  53.2169 187.9991 0001205  98.5043 261.6086 15.08844392 50926,6917.867,95.437,540.566,538.898,0.0
53820.0,STARLINK-4758,PAYLOAD,2023-08-18 03:27:31,15.08842382,0.0001439,53.2176,179.6723,101.0798,259.0356,1.9503e-05,2.2e-07,0.0,0 STARLINK-4758,1 53820U 22114C   23230.14411584  .00000022  00000-0  19503-4 0  9992,2 53820  53.2176 179.6723 0001439 101.0798 259.0356 15.08842382 51201,6917.873,95.437,540.734,538.743,0.0
53820.0,STARLINK-4758,PAYLOAD,2023-08-19 04:53:42,15.08838536,0.0001343,53.217,174.9174,87.8807,272.2339,3.6547e-05,2.94e-06,0.0,0 STARLINK-4758,1 53820U 22114C   23231.20396104  .00000294  00000-0  36547-4 0  9998,2 53820  53.2170 174.9174 0001343  87.8807 272.2339 15.08838536 51360,6917.885,95.438,540.679,538.821,0.0
53820.0,STARLINK-4758,PAYLOAD,2023-08-20 01:33:43,15.08832329,0.0001335,53.2171,171.0516,90.6537,269.4608,-2.2673e-05,-6.49e-06,0.0,0 STARLINK-4758,1 53820U 22114C   23232.06509091 -.00000649  00000-0 -22673-4 0  9995,2 53820  53.2171 171.0516 0001335  90.6537 269.4608 15.08832329 51497,6917.904,95.438,540.692,538.845,0.0
53820.0,STARLINK-4758,PAYLOAD,2023-08-21 02:59:53,15.0884328,0.000136,53.2186,166.2933,84.0895,276.0252,0.000133,1.83e-05,0.0,0 STARLINK-4758,1 53820U 22114C   23233.12492268  .00001830  00000-0  13300-3 0  9997,2 53820  53.2186 166.2933 0001360  84.0895 276.0252 15.08843280 51659,6917.87,95.437,540.676,538.795,0.0
